[{"OBJECT_NAME":"SES-2","OBJECT_ID":"2011-049A","EPOCH":"2026-03-06T13:32:36.874752","MEAN_MOTION":1.00271816,"ECCENTRICITY":0.00029048,"INCLINATION":0.0247,"RA_OF_ASC_NODE":75.9088,"ARG_OF_PERICENTER":271.4563,"MEAN_ANOMALY":293.0556,"EPHEMERIS_TYPE":0,"CLASSIFICATION_TYPE":"U","NORAD_CAT_ID":37809,"ELEMENT_SET_NO":999,"REV_AT_EPOCH":5293,"BSTAR":0,"MEAN_MOTION_DOT":-2.0e-6,"MEAN_MOTION_DDOT":0},{"OBJECT_NAME":"QUETZSAT 1","OBJECT_ID":"2011-054A","EPOCH":"2026-03-06T13:35:29.100192","MEAN_MOTION":1.00280367,"ECCENTRICITY":0.00028468,"INCLINATION":0.0489,"RA_OF_ASC_NODE":292.9234,"ARG_OF_PERICENTER":66.9972,"MEAN_ANOMALY":291.2306,"EPHEMERIS_TYPE":0,"CLASSIFICATION_TYPE":"U","NORAD_CAT_ID":37826,"ELEMENT_SET_NO":999,"REV_AT_EPOCH":4884,"BSTAR":0,"MEAN_MOTION_DOT":-2.46e-6,"MEAN_MOTION_DDOT":0},{"OBJECT_NAME":"SES-4","OBJECT_ID":"2012-007A","EPOCH":"2026-03-06T10:32:38.658048","MEAN_MOTION":1.00270086,"ECCENTRICITY":0.00021933,"INCLINATION":0.0353,"RA_OF_ASC_NODE":65.8553,"ARG_OF_PERICENTER":272.1207,"MEAN_ANOMALY":322.3456,"EPHEMERIS_TYPE":0,"CLASSIFICATION_TYPE":"U","NORAD_CAT_ID":38087,"ELEMENT_SET_NO":999,"REV_AT_EPOCH":5119,"BSTAR":0,"MEAN_MOTION_DOT":-1.73e-6,"MEAN_MOTION_DDOT":0},{"OBJECT_NAME":"SES-5","OBJECT_ID":"2012-036A","EPOCH":"2026-03-06T05:25:24.259008","MEAN_MOTION":1.00271218,"ECCENTRICITY":0.0001901,"INCLINATION":0.0597,"RA_OF_ASC_NODE":310.4117,"ARG_OF_PERICENTER":31.4449,"MEAN_ANOMALY":268.4077,"EPHEMERIS_TYPE":0,"CLASSIFICATION_TYPE":"U","NORAD_CAT_ID":38652,"ELEMENT_SET_NO":999,"REV_AT_EPOCH":4342,"BSTAR":0,"MEAN_MOTION_DOT":2.8e-7,"MEAN_MOTION_DDOT":0},{"OBJECT_NAME":"ASTRA 2F","OBJECT_ID":"2012-051A","EPOCH":"2026-03-06T14:05:26.227968","MEAN_MOTION":1.00276624,"ECCENTRICITY":0.00022909,"INCLINATION":0.092,"RA_OF_ASC_NODE":260.0553,"ARG_OF_PERICENTER":10.6931,"MEAN_ANOMALY":133.1353,"EPHEMERIS_TYPE":0,"CLASSIFICATION_TYPE":"U","NORAD_CAT_ID":38778,"ELEMENT_SET_NO":999,"REV_AT_EPOCH":4010,"BSTAR":0,"MEAN_MOTION_DOT":1.46e-6,"MEAN_MOTION_DDOT":0},{"OBJECT_NAME":"SES-6","OBJECT_ID":"2013-026A","EPOCH":"2026-03-06T18:53:58.560576","MEAN_MOTION":1.00271559,"ECCENTRICITY":0.000186,"INCLINATION":0.0608,"RA_OF_ASC_NODE":290.5993,"ARG_OF_PERICENTER":68.2463,"MEAN_ANOMALY":48.6292,"EPHEMERIS_TYPE":0,"CLASSIFICATION_TYPE":"U","NORAD_CAT_ID":39172,"ELEMENT_SET_NO":999,"REV_AT_EPOCH":4669,"BSTAR":0,"MEAN_MOTION_DOT":-2.65e-6,"MEAN_MOTION_DDOT":0},{"OBJECT_NAME":"O3B FM5","OBJECT_ID":"2013-031A","EPOCH":"2026-03-06T11:54:39.278880","MEAN_MOTION":5.00116473,"ECCENTRICITY":0.00033317,"INCLINATION":0.098,"RA_OF_ASC_NODE":13.4545,"ARG_OF_PERICENTER":322.6467,"MEAN_ANOMALY":23.8782,"EPHEMERIS_TYPE":0,"CLASSIFICATION_TYPE":"U","NORAD_CAT_ID":39188,"ELEMENT_SET_NO":999,"REV_AT_EPOCH":23189,"BSTAR":0,"MEAN_MOTION_DOT":-2.6e-7,"MEAN_MOTION_DDOT":0},{"OBJECT_NAME":"O3B FM4","OBJECT_ID":"2013-031B","EPOCH":"2026-03-06T05:10:33.487104","MEAN_MOTION":5.00115247,"ECCENTRICITY":0.00050863,"INCLINATION":0.0553,"RA_OF_ASC_NODE":345.1172,"ARG_OF_PERICENTER":9.2557,"MEAN_ANOMALY":5.6159,"EPHEMERIS_TYPE":0,"CLASSIFICATION_TYPE":"U","NORAD_CAT_ID":39189,"ELEMENT_SET_NO":999,"REV_AT_EPOCH":23189,"BSTAR":0,"MEAN_MOTION_DOT":-2.6e-7,"MEAN_MOTION_DDOT":0},{"OBJECT_NAME":"O3B FM2","OBJECT_ID":"2013-031C","EPOCH":"2026-03-06T06:45:08.328960","MEAN_MOTION":5.00116014,"ECCENTRICITY":0.00028281,"INCLINATION":0.0562,"RA_OF_ASC_NODE":338.9068,"ARG_OF_PERICENTER":5.1857,"MEAN_ANOMALY":15.8932,"EPHEMERIS_TYPE":0,"CLASSIFICATION_TYPE":"U","NORAD_CAT_ID":39190,"ELEMENT_SET_NO":999,"REV_AT_EPOCH":23196,"BSTAR":0,"MEAN_MOTION_DOT":-2.6e-7,"MEAN_MOTION_DDOT":0},{"OBJECT_NAME":"O3B PFM","OBJECT_ID":"2013-031D","EPOCH":"2026-03-06T02:17:37.197024","MEAN_MOTION":5.00115906,"ECCENTRICITY":0.00051477,"INCLINATION":0.0668,"RA_OF_ASC_NODE":7.2787,"ARG_OF_PERICENTER":352.3292,"MEAN_ANOMALY":0.3862,"EPHEMERIS_TYPE":0,"CLASSIFICATION_TYPE":"U","NORAD_CAT_ID":39191,"ELEMENT_SET_NO":999,"REV_AT_EPOCH":23151,"BSTAR":0,"MEAN_MOTION_DOT":-2.6e-7,"MEAN_MOTION_DDOT":0},{"OBJECT_NAME":"ASTRA 2E","OBJECT_ID":"2013-056A","EPOCH":"2026-03-06T19:13:41.670336","MEAN_MOTION":1.00273237,"ECCENTRICITY":0.0002179,"INCLINATION":0.0732,"RA_OF_ASC_NODE":34.8304,"ARG_OF_PERICENTER":306.126,"MEAN_ANOMALY":140.4556,"EPHEMERIS_TYPE":0,"CLASSIFICATION_TYPE":"U","NORAD_CAT_ID":39285,"ELEMENT_SET_NO":999,"REV_AT_EPOCH":4539,"BSTAR":0,"MEAN_MOTION_DOT":1.47e-6,"MEAN_MOTION_DDOT":0},{"OBJECT_NAME":"SES-8","OBJECT_ID":"2013-071A","EPOCH":"2026-03-06T19:32:39.850368","MEAN_MOTION":1.00272372,"ECCENTRICITY":0.0001763,"INCLINATION":0.0521,"RA_OF_ASC_NODE":270.9904,"ARG_OF_PERICENTER":104.7767,"MEAN_ANOMALY":176.9215,"EPHEMERIS_TYPE":0,"CLASSIFICATION_TYPE":"U","NORAD_CAT_ID":39460,"ELEMENT_SET_NO":999,"REV_AT_EPOCH":4341,"BSTAR":0,"MEAN_MOTION_DOT":-2.73e-6,"MEAN_MOTION_DDOT":0},{"OBJECT_NAME":"ASTRA 5B","OBJECT_ID":"2014-011B","EPOCH":"2026-03-06T19:12:19.300032","MEAN_MOTION":1.00272325,"ECCENTRICITY":0.0004015,"INCLINATION":0.086,"RA_OF_ASC_NODE":301.0296,"ARG_OF_PERICENTER":28.7722,"MEAN_ANOMALY":146.2633,"EPHEMERIS_TYPE":0,"CLASSIFICATION_TYPE":"U","NORAD_CAT_ID":39617,"ELEMENT_SET_NO":999,"REV_AT_EPOCH":4364,"BSTAR":0,"MEAN_MOTION_DOT":1.34e-6,"MEAN_MOTION_DDOT":0},{"OBJECT_NAME":"O3B FM3","OBJECT_ID":"2014-038A","EPOCH":"2026-03-06T18:17:05.031456","MEAN_MOTION":5.00115651,"ECCENTRICITY":6.55e-5,"INCLINATION":0.053,"RA_OF_ASC_NODE":353.4216,"ARG_OF_PERICENTER":58.0051,"MEAN_ANOMALY":308.5741,"EPHEMERIS_TYPE":0,"CLASSIFICATION_TYPE":"U","NORAD_CAT_ID":40079,"ELEMENT_SET_NO":999,"REV_AT_EPOCH":20791,"BSTAR":0,"MEAN_MOTION_DOT":-2.6e-7,"MEAN_MOTION_DDOT":0},{"OBJECT_NAME":"O3B FM7","OBJECT_ID":"2014-038B","EPOCH":"2026-03-02T07:26:54.646080","MEAN_MOTION":5.00115622,"ECCENTRICITY":0.00044887,"INCLINATION":0.0588,"RA_OF_ASC_NODE":348.9474,"ARG_OF_PERICENTER":339.4059,"MEAN_ANOMALY":31.6123,"EPHEMERIS_TYPE":0,"CLASSIFICATION_TYPE":"U","NORAD_CAT_ID":40080,"ELEMENT_SET_NO":999,"REV_AT_EPOCH":21253,"BSTAR":0,"MEAN_MOTION_DOT":-2.9e-7,"MEAN_MOTION_DDOT":0},{"OBJECT_NAME":"O3B FM6","OBJECT_ID":"2014-038C","EPOCH":"2026-03-06T17:38:20.331456","MEAN_MOTION":5.00115757,"ECCENTRICITY":0.0002664,"INCLINATION":0.0549,"RA_OF_ASC_NODE":351.2792,"ARG_OF_PERICENTER":351.0679,"MEAN_ANOMALY":17.6384,"EPHEMERIS_TYPE":0,"CLASSIFICATION_TYPE":"U","NORAD_CAT_ID":40081,"ELEMENT_SET_NO":999,"REV_AT_EPOCH":21270,"BSTAR":0,"MEAN_MOTION_DOT":-2.6e-7,"MEAN_MOTION_DDOT":0},{"OBJECT_NAME":"O3B FM8","OBJECT_ID":"2014-038D","EPOCH":"2026-03-04T14:08:51.008064","MEAN_MOTION":5.00115977,"ECCENTRICITY":0.0002658,"INCLINATION":0.0558,"RA_OF_ASC_NODE":350.6431,"ARG_OF_PERICENTER":354.8269,"MEAN_ANOMALY":14.516,"EPHEMERIS_TYPE":0,"CLASSIFICATION_TYPE":"U","NORAD_CAT_ID":40082,"ELEMENT_SET_NO":999,"REV_AT_EPOCH":21271,"BSTAR":0,"MEAN_MOTION_DOT":-2.7e-7,"MEAN_MOTION_DDOT":0}]
